[{"OBJECT_NAME":"STARLINK-34570","OBJECT_ID":"2025-152U","EPOCH":"2026-03-09T13:17:59.209728","MEAN_MOTION":15.05651495,"ECCENTRICITY":0.00016056,"INCLINATION":97.6024,"RA_OF_ASC_NODE":285.3323,"ARG_OF_PERICENTER":87.4298,"MEAN_ANOMALY":272.7113,"EPHEMERIS_TYPE":0,"CLASSIFICATION_TYPE":"U","NORAD_CAT_ID":64860,"ELEMENT_SET_NO":999,"REV_AT_EPOCH":3539,"BSTAR":0.00021329761,"MEAN_MOTION_DOT":3.018e-5,"MEAN_MOTION_DDOT":0},{"OBJECT_NAME":"THOR ABLESTAR DEB","OBJECT_ID":"1961-015G","EPOCH":"2026-03-09T12:36:21.518784","MEAN_MOTION":14.9924172,"ECCENTRICITY":0.00458994,"INCLINATION":66.74,"RA_OF_ASC_NODE":114.2823,"ARG_OF_PERICENTER":282.1843,"MEAN_ANOMALY":77.4151,"EPHEMERIS_TYPE":0,"CLASSIFICATION_TYPE":"U","NORAD_CAT_ID":122,"ELEMENT_SET_NO":999,"REV_AT_EPOCH":37932,"BSTAR":0.00092278357,"MEAN_MOTION_DOT":0.00011411,"MEAN_MOTION_DDOT":0}]
